[{"OBJECT_NAME":"A-SEANSAT-PG1","OBJECT_ID":"2023-091AH","EPOCH":"2026-03-09T22:32:06.495648","MEAN_MOTION":15.33422293,"ECCENTRICITY":0.00088895,"INCLINATION":97.5184,"RA_OF_ASC_NODE":136.6191,"ARG_OF_PERICENTER":78.3219,"MEAN_ANOMALY":281.902,"EPHEMERIS_TYPE":0,"CLASSIFICATION_TYPE":"U","NORAD_CAT_ID":57197,"ELEMENT_SET_NO":999,"REV_AT_EPOCH":14948,"BSTAR":0.0007038551,"MEAN_MOTION_DOT":0.00022724,"MEAN_MOTION_DDOT":0},{"OBJECT_NAME":"STARLINK-35612","OBJECT_ID":"2025-237Q","EPOCH":"2026-03-09T22:09:52.382880","MEAN_MOTION":15.30214199,"ECCENTRICITY":0.00011536,"INCLINATION":53.1611,"RA_OF_ASC_NODE":38.7325,"ARG_OF_PERICENTER":90.1189,"MEAN_ANOMALY":269.9944,"EPHEMERIS_TYPE":0,"CLASSIFICATION_TYPE":"U","NORAD_CAT_ID":66128,"ELEMENT_SET_NO":999,"REV_AT_EPOCH":2264,"BSTAR":0.001226028,"MEAN_MOTION_DOT":0.00036145,"MEAN_MOTION_DDOT":0}]
